[Satellite]
VERSION=1.1
NAME=GSAT0103 (PRN E19)
NICKNAME=GSAT0103 (PRN E19)
TLE1=1 38857U 12055A   20157.26254120  .00000065  00000-0  00000-0 0  9992
TLE2=2 38857  54.9772 162.1161 0005217 270.0305  89.9292  1.70473742 47608
STATUS=0
